OBJECT_NAME,OBJECT_ID,EPOCH,MEAN_MOTION,ECCENTRICITY,INCLINATION,RA_OF_ASC_NODE,ARG_OF_PERICENTER,MEAN_ANOMALY,EPHEMERIS_TYPE,CLASSIFICATION_TYPE,NORAD_CAT_ID,ELEMENT_SET_NO,REV_AT_EPOCH,BSTAR,MEAN_MOTION_DOT,MEAN_MOTION_DDOT
GLOBALSTAR M069,2007-020C,2026-07-04T12:50:14.940960,12.23471919,.00019292,51.9996,203.0254,186.5040,340.9843,0,U,31573,999,88092,.21184049E-3,-.7E-6,0
GLOBALSTAR M072,2007-020D,2026-07-04T15:49:29.244000,11.91658599,.00015926,51.9942,53.7304,13.6714,19.8118,0,U,31574,999,87706,.23287215E-3,-.67E-6,0
GLOBALSTAR M066,2007-048C,2026-07-04T12:51:37.334592,12.30387894,.00057133,51.9612,8.1104,79.8467,314.3397,0,U,32265,999,86236,-.18207073E-4,-.97E-6,0
GLOBALSTAR M079,2010-054A,2026-07-04T10:08:39.379200,12.62266408,.00010422,52.0045,56.2032,59.3937,112.2136,0,U,37188,999,72472,.74320609E-4,-.9E-6,0
GLOBALSTAR M074,2010-054B,2026-07-04T01:14:07.091808,12.62261858,.00008133,52.0027,56.5956,75.8731,88.2391,0,U,37189,999,72528,.68553462E-4,-.91E-6,0
GLOBALSTAR M076,2010-054C,2026-07-04T09:30:48.294720,12.62262070,.00010349,52.0038,55.7504,72.2969,99.8500,0,U,37190,999,72504,.99541813E-4,-.86E-6,0
GLOBALSTAR M077,2010-054D,2026-07-04T08:33:03.404160,11.67547948,.00024411,51.9935,135.7168,203.9150,325.8394,0,U,37191,999,72314,.16519171E-3,-.69E-6,0
GLOBALSTAR M075,2010-054E,2026-07-04T11:43:18.339744,12.62267676,.00005597,51.9942,97.5142,47.1684,123.5923,0,U,37192,999,72412,.20114075E-3,-.68E-6,0
GLOBALSTAR M073,2010-054F,2026-07-04T12:54:47.449152,12.62266827,.00011117,52.0073,11.4771,80.5207,314.3243,0,U,37193,999,72612,.39374393E-4,-.97E-6,0
GLOBALSTAR M083,2011-033A,2026-07-04T15:00:24.027840,12.62263814,.00009254,51.9877,319.4166,93.4041,279.3564,0,U,37739,999,69515,.121692E-3,-.82E-6,0
GLOBALSTAR M088,2011-033B,2026-07-04T08:40:46.941888,12.62269228,.0000289,52.0191,226.6900,153.1747,219.6191,0,U,37740,999,69066,.37662008E-4,-.97E-6,0
GLOBALSTAR M091,2011-033C,2026-07-04T09:42:06.134688,12.62264130,.00001391,51.9965,189.4990,354.4275,152.7226,0,U,37741,999,69145,-.69814883E-4,-.116E-5,0
GLOBALSTAR M085,2011-033D,2026-07-04T15:12:48.474432,12.62264212,.00005307,52.0109,140.1060,16.9527,154.3438,0,U,37742,999,69199,.49717638E-4,-.95E-6,0
GLOBALSTAR M081,2011-033E,2026-07-04T15:50:55.644864,12.62265309,.00004278,51.9940,142.4418,40.9164,130.4995,0,U,37743,999,69214,.2922173E-4,-.99E-6,0
GLOBALSTAR M089,2011-033F,2026-07-04T11:05:22.224192,12.62267488,.00005893,51.9928,97.2016,80.6266,90.2407,0,U,37744,999,69296,.11699954E-3,-.83E-6,0
GLOBALSTAR M084,2011-080A,2026-07-04T08:41:51.417888,12.62267742,.00010381,52.0026,324.9952,114.1729,263.5093,0,U,38040,999,67093,.8217018E-4,-.89E-6,0
GLOBALSTAR M080,2011-080B,2026-07-04T15:35:30.382944,12.62265472,.00004108,52.0081,325.8451,82.4452,291.2697,0,U,38041,999,67109,.51038687E-4,-.95E-6,0
GLOBALSTAR M082,2011-080C,2026-07-04T14:03:38.149344,12.62263947,.00003432,52.0078,281.5429,112.3768,261.0413,0,U,38042,999,67179,.16180039E-3,-.75E-6,0
GLOBALSTAR M092,2011-080D,2026-07-04T13:33:44.777376,12.62267530,.00008453,52.0098,12.0030,89.7067,308.5728,0,U,38043,999,67024,.14834944E-3,-.77E-6,0
GLOBALSTAR M090,2011-080E,2026-07-04T05:13:03.666720,12.62252830,.00005358,52.0126,276.6260,105.7516,271.4525,0,U,38044,999,67186,.16687548E-3,-.74E-6,0
GLOBALSTAR M086,2011-080F,2026-07-04T13:18:50.265216,12.62287673,.00016543,51.9898,275.5000,96.0259,277.4929,0,U,38045,999,67185,.24319981E-3,-.6E-6,0
GLOBALSTAR M097,2013-005A,2026-07-04T10:12:04.485024,12.62271303,.00001998,52.0013,190.8627,41.2199,318.8683,0,U,39072,999,61908,-.52992054E-4,-.113E-5,0
GLOBALSTAR M093,2013-005B,2026-07-04T09:33:27.821952,12.62266172,.00003884,52.0073,184.2969,32.5125,327.5765,0,U,39073,999,61903,-.45143584E-4,-.112E-5,0
GLOBALSTAR M094,2013-005C,2026-07-04T11:27:16.647264,12.62268518,.00008211,51.9958,98.1558,42.4626,317.6304,0,U,39074,999,62065,.10855913E-3,-.84E-6,0
GLOBALSTAR M096,2013-005D,2026-07-04T13:40:46.642656,12.62265614,.00004858,52.0049,146.6878,21.9648,338.1239,0,U,39075,999,61958,.1151056E-5,-.104E-5,0
GLOBALSTAR M078,2013-005E,2026-07-04T13:02:01.706784,12.62260017,.00006009,51.9851,230.7582,304.3239,55.7570,0,U,39076,999,61820,.83933574E-4,-.89E-6,0
GLOBALSTAR M095,2013-005F,2026-07-04T11:46:27.380352,12.62263937,.00001645,52.0059,228.5463,0.7808,359.3059,0,U,39077,999,61805,.601808E-4,-.93E-6,0
GLOBALSTAR M087,2022-064A,2026-07-04T13:59:25.803456,12.62269280,.0000941,52.0011,9.4925,70.2357,289.8611,0,U,52888,999,19333,-.19247208E-4,-.107E-5,0
