GLOBALSTAR M069         
1 31573U 07020C   26185.53489515 -.00000070  00000+0  21184-3 0  9996
2 31573  51.9996 203.0254 0001929 186.5040 340.9843 12.23471919880928
GLOBALSTAR M072         
1 31574U 07020D   26185.65936625 -.00000067  00000+0  23287-3 0  9991
2 31574  51.9942  53.7304 0001592  13.6714  19.8118 11.91658599877063
GLOBALSTAR M066         
1 32265U 07048C   26185.53584878 -.00000097  00000+0 -18207-4 0  9996
2 32265  51.9612   8.1104 0005713  79.8467 314.3397 12.30387894862365
GLOBALSTAR M079         
1 37188U 10054A   26185.42267800 -.00000090  00000+0  74321-4 0  9998
2 37188  52.0045  56.2032 0001042  59.3937 112.2136 12.62266408724721
GLOBALSTAR M074         
1 37189U 10054B   26185.05147097 -.00000091  00000+0  68553-4 0  9994
2 37189  52.0027  56.5956 0000813  75.8731  88.2391 12.62261858725281
GLOBALSTAR M076         
1 37190U 10054C   26185.39639230 -.00000086  00000+0  99542-4 0  9994
2 37190  52.0038  55.7504 0001034  72.2969  99.8500 12.62262070725046
GLOBALSTAR M077         
1 37191U 10054D   26185.35628940 -.00000069  00000+0  16519-3 0  9990
2 37191  51.9935 135.7168 0002441 203.9150 325.8394 11.67547948723140
GLOBALSTAR M075         
1 37192U 10054E   26185.48840671 -.00000068  00000+0  20114-3 0  9997
2 37192  51.9942  97.5142 0000559  47.1684 123.5923 12.62267676724127
GLOBALSTAR M073         
1 37193U 10054F   26185.53804918 -.00000097  00000+0  39374-4 0  9999
2 37193  52.0073  11.4771 0001111  80.5207 314.3243 12.62266827726129
GLOBALSTAR M083         
1 37739U 11033A   26185.62527810 -.00000082  00000+0  12169-3 0  9992
2 37739  51.9877 319.4166 0000925  93.4041 279.3564 12.62263814695152
GLOBALSTAR M088         
1 37740U 11033B   26185.36165442 -.00000097  00000+0  37662-4 0  9996
2 37740  52.0191 226.6900 0000289 153.1747 219.6191 12.62269228690669
GLOBALSTAR M091         
1 37741U 11033C   26185.40423767 -.00000116  00000+0 -69815-4 0  9997
2 37741  51.9965 189.4990 0000139 354.4275 152.7226 12.62264130691459
GLOBALSTAR M085         
1 37742U 11033D   26185.63389438 -.00000095  00000+0  49718-4 0  9994
2 37742  52.0109 140.1060 0000530  16.9527 154.3438 12.62264212691992
GLOBALSTAR M081         
1 37743U 11033E   26185.66036626 -.00000099  00000+0  29222-4 0  9998
2 37743  51.9940 142.4418 0000427  40.9164 130.4995 12.62265309692144
GLOBALSTAR M089         
1 37744U 11033F   26185.46206278 -.00000083  00000+0  11700-3 0  9993
2 37744  51.9928  97.2016 0000589  80.6266  90.2407 12.62267488692966
GLOBALSTAR M084         
1 38040U 11080A   26185.36240067 -.00000089  00000+0  82170-4 0  9994
2 38040  52.0026 324.9952 0001038 114.1729 263.5093 12.62267742670935
GLOBALSTAR M080         
1 38041U 11080B   26185.64965721 -.00000095  00000+0  51039-4 0  9994
2 38041  52.0081 325.8451 0000410  82.4452 291.2697 12.62265472671098
GLOBALSTAR M082         
1 38042U 11080C   26185.58585821 -.00000075  00000+0  16180-3 0  9992
2 38042  52.0078 281.5429 0000343 112.3768 261.0413 12.62263947671799
GLOBALSTAR M092         
1 38043U 11080D   26185.56510159 -.00000077  00000+0  14835-3 0  9990
2 38043  52.0098  12.0030 0000845  89.7067 308.5728 12.62267530670240
GLOBALSTAR M090         
1 38044U 11080E   26185.21740355 -.00000074  00000+0  16688-3 0  9991
2 38044  52.0126 276.6260 0000535 105.7516 271.4525 12.62252830671869
GLOBALSTAR M086         
1 38045U 11080F   26185.55474844 -.00000060  00000+0  24320-3 0  9993
2 38045  51.9898 275.5000 0001654  96.0259 277.4929 12.62287673671859
GLOBALSTAR M097         
1 39072U 13005A   26185.42505191 -.00000113  00000+0 -52992-4 0  9996
2 39072  52.0013 190.8627 0000199  41.2199 318.8683 12.62271303619080
GLOBALSTAR M093         
1 39073U 13005B   26185.39823868 -.00000112  00000+0 -45144-4 0  9997
2 39073  52.0073 184.2969 0000388  32.5125 327.5765 12.62266172619036
GLOBALSTAR M094         
1 39074U 13005C   26185.47727601 -.00000084  00000+0  10856-3 0  9993
2 39074  51.9958  98.1558 0000821  42.4626 317.6304 12.62268518620657
GLOBALSTAR M096         
1 39075U 13005D   26185.56998429 -.00000104  00000+0  11511-5 0  9996
2 39075  52.0049 146.6878 0000485  21.9648 338.1239 12.62265614619586
GLOBALSTAR M078         
1 39076U 13005E   26185.54307531 -.00000089  00000+0  83934-4 0  9992
2 39076  51.9851 230.7582 0000600 304.3239  55.7570 12.62260017618206
GLOBALSTAR M095         
1 39077U 13005F   26185.49059468 -.00000093  00000+0  60181-4 0  9994
2 39077  52.0059 228.5463 0000164   0.7808 359.3059 12.62263937618058
GLOBALSTAR M087         
1 52888U 22064A   26185.58293754 -.00000107  00000+0 -19247-4 0  9996
2 52888  52.0011   9.4925 0000941  70.2357 289.8611 12.62269280193331
